STARLINK-32520          
1 62021C 24213P   26198.45951389 -.00110420  00000+0 -32615-2 0  1982
2 62021  53.1582 285.5235 0001144  79.7539 180.0622 15.34454704    14
STARLINK-32539          
1 62022C 24213Q   26198.39770833 -.00051183  00000+0 -17247-2 0  1983
2 62022  53.1572 273.1279 0001022  94.5084  41.7044 15.30224276    16
STARLINK-32334          
1 62023C 24213R   26198.42965278 -.00055711  00000+0 -18775-2 0  1985
2 62023  53.1595 285.2007 0001025  77.2074 249.9411 15.30222398    18
STARLINK-32504          
1 62024C 24213S   26198.43243056 -.00038537  00000+0 -12990-2 0  1980
2 62024  53.1579 285.3783 0000962  86.7951 162.5967 15.30207994    12
STARLINK-32493          
1 62025C 24213T   26198.41645833 -.00056630  00000+0 -16731-2 0  1989
2 62025  53.1587 283.8246 0001150  92.0193 176.6601 15.34419517    18
STARLINK-32561          
1 62026C 24213U   26198.46645833 -.00056996  00000+0 -19211-2 0  1986
2 62026  53.1577 285.2857 0000526   8.0447  34.0064 15.30218628    13
STARLINK-32512          
1 62027C 24213V   26198.46715278 -.00052408  00000+0 -17665-2 0  1983
2 62027  53.1592 285.1085 0001034  86.3794  46.7432 15.30215548    19
STARLINK-32637          
1 62032C 24216A   26198.44631944  .00003955  00000+0  14329-3 0  1983
2 62032  43.0010 243.1398 0001142 279.4097 121.3067 15.27564363    12
STARLINK-32582          
1 62033C 24216B   26198.41159722 -.00031240  00000+0 -11316-2 0  1982
2 62033  43.0011 250.7390 0002006 276.3783  93.3234 15.27589738    15
STARLINK-32615          
1 62034C 24216C   26198.46159722  .00015054  00000+0  54545-3 0  1983
2 62034  42.9984 243.5604 0001534 280.1162 352.4689 15.27559251    10
STARLINK-32592          
1 62035C 24216D   26198.41993056 -.00005338  00000+0 -19339-3 0  1983
2 62035  42.9985 251.0253 0001425 273.5882   0.5038 15.27569254    13
STARLINK-32225          
1 62036C 24216E   26198.46229167  .00002317  00000+0  83946-4 0  1982
2 62036  42.9986 243.6078 0001424 281.8421 333.3596 15.27567184    13
STARLINK-32595          
1 62037C 24216F   26198.43312500 -.00015778  00000+0 -57165-3 0  1984
2 62037  42.9990 250.8003 0001580 272.7141 137.6970 15.27576795    17
STARLINK-32477          
1 62038C 24216G   26198.43520833  .00379140  00000+0  83400-3 0  1980
2 62038  42.9775 197.0446 0022915 118.4897  56.1828 15.96386537    17
STARLINK-32480          
1 62039C 24216H   26198.44909722 -.00028987  00000+0 -10503-2 0  1985
2 62039  42.9985 243.7137 0001420 274.2291 254.1727 15.27581735    13
STARLINK-32510          
1 62040C 24216J   26198.41437500 -.00015973  00000+0 -57870-3 0  1984
2 62040  42.9986 251.2407 0001444 273.1280 252.5628 15.27576550    13
STARLINK-32456          
1 62041C 24216K   26198.44284722 -.00014206  00000+0 -51473-3 0  1985
2 62041  42.9984 243.8010 0001372 281.1001 191.6653 15.27572786    17
STARLINK-32509          
1 62042C 24216L   26198.39701389 -.00019956  00000+0 -72305-3 0  1987
2 62042  42.9988 243.8405 0001519 273.8874  38.5019 15.27576456    12
STARLINK-32491          
1 62043C 24216M   26198.42062500 -.00055419  00000+0 -20073-2 0  1985
2 62043  42.9985 251.1549 0001412 280.1150 301.1935 15.27606034    13
STARLINK-32577          
1 62044C 24216N   26198.42895833 -.00009685  00000+0 -35090-3 0  1989
2 62044  43.0000 250.7237 0001937 281.2661 148.6476 15.27570857    11
STARLINK-32618          
1 62045C 24216P   26198.47687500  .00006400  00000+0  23190-3 0  1983
2 62045  42.9984 243.4989 0001427 274.6342  67.9373 15.27564187    18
STARLINK-32598          
1 62046C 24216Q   26198.45256944  .00103550  00000+0  37546-2 0  1989
2 62046  42.9994 243.0150 0001036 268.6924 201.7249 15.27493485    13
STARLINK-32630          
1 62047C 24216R   26198.44076389 -.00012689  00000+0 -45974-3 0  1981
2 62047  42.9989 250.8045 0001522 274.4833 156.7652 15.27574956    11
STARLINK-32599          
1 62048C 24216S   26198.41090278 -.00033823  00000+0 -12253-2 0  1988
2 62048  42.9987 251.0232 0001395 274.7884 330.8283 15.27588247    11
STARLINK-32473          
1 62049C 24216T   26198.39562500 -.00023520  00000+0 -85213-3 0  1988
2 62049  42.9985 243.8790 0001734 275.6620  14.9329 15.27579866    11
STARLINK-32492          
1 62050C 24216U   26198.43520833 -.00002365  00000+0 -85681-4 0  1982
2 62050  43.0014 250.5517 0001702 276.9498 243.9798 15.27567710    11
STARLINK-32496          
1 62051C 24216V   26198.44284722 -.00012858  00000+0 -46585-3 0  1985
2 62051  42.9985 250.9774 0001389 274.6532  90.2516 15.27574644    16
STARLINK-32495          
1 62052C 24216W   26198.43243056 -.00000243  00000+0 -87972-5 0  1982
2 62052  42.9997 250.3239 0001329 275.0241 329.6647 15.27567784    17
STARLINK-32494          
1 62053C 24216X   26198.43937500 -.00020328  00000+0 -73633-3 0  1980
2 62053  43.0005 250.6303 0001730 273.9861 227.4254 15.27585281    17
STARLINK-32408          
1 62054C 24216Y   26198.44701389  .00000013  00000+0  46487-6 0  1983
2 62054  42.9991 243.5397 0001734 275.0575 319.6981 15.27565663    16
STARLINK-32571          
1 62055C 24216Z   26198.45534722 -.00020227  00000+0 -73287-3 0  1986
2 62055  42.9988 242.9461 0001418 274.9790 232.0559 15.27577454    14
STARLINK-11465 [DTC]    
1 62057C 24217A   26198.47340278 -.00000113  00000+0 -93238-6 0  1985
2 62057  53.1570 151.2650 0001120  84.4262 157.9104 15.69706458    12
STARLINK-11426 [DTC]    
1 62058C 24217B   26198.44423611  .00020498  00000+0  16883-3 0  1980
2 62058  53.1575 151.3528 0001097  83.2478  21.9094 15.69702185    13
STARLINK-11454 [DTC]    
1 62059C 24217C   26198.44770833  .00017543  00000+0  14439-3 0  1984
2 62059  53.1577 151.7309 0001013  40.3876 250.1050 15.69721030    19
STARLINK-11473 [DTC]    
1 62060C 24217D   26198.44562500  .00009463  00000+0  78005-4 0  1988
2 62060  53.1577 151.8535 0001297  74.1125 149.3000 15.69686085    13
STARLINK-11429 [DTC]    
1 62061C 24217E   26198.44215278  .00014078  00000+0  11596-3 0  1985
2 62061  53.1573 151.7006 0001111  86.4160 200.5396 15.69702674    13
STARLINK-11470 [DTC]    
1 62062C 24217F   26198.46298611 -.00002239  00000+0 -18441-4 0  1985
2 62062  53.1570 151.5388 0001118  88.3212 344.1661 15.69711534    13
STARLINK-11427 [DTC]    
1 62063C 24217G   26198.45326389  .00010140  00000+0  83544-4 0  1983
2 62063  53.1579 151.7586 0001098  90.2825 204.0277 15.69699361    14
STARLINK-11456 [DTC]    
1 62064C 24217H   26198.46645833 -.00007429  00000+0 -61212-4 0  1989
2 62064  53.1573 151.3536 0001118  87.8905  87.4428 15.69706386    11
STARLINK-11474 [DTC]    
1 62065C 24217J   26198.44701389  .00016224  00000+0  13363-3 0  1981
2 62065  53.1575 151.2798 0001180  84.9228  63.6810 15.69703689    12
STARLINK-11463 [DTC]    
1 62066C 24217K   26198.46784722  .00006882  00000+0  56791-4 0  1988
2 62066  53.1571 151.4633 0001152  92.7715  35.0089 15.69662371    19
STARLINK-11472 [DTC]    
1 62067C 24217L   26198.43243056  .00025268  00000+0  20815-3 0  1982
2 62067  53.1571 152.0293 0001035  77.7500  15.5536 15.69695862    15
STARLINK-11467 [DTC]    
1 62068C 24217M   26198.44979167  .00003215  00000+0  26481-4 0  1987
2 62068  53.1569 151.4909 0001153  80.1260 333.2284 15.69712907    12
STARLINK-11460 [DTC]    
1 62069C 24217N   26198.40881944  .00046560  00000+0  38363-3 0  1980
2 62069  53.1572 152.0880 0001110  82.3552 265.1938 15.69680162    19
STARLINK-32604          
1 62070C 24217P   26198.46020833 -.00026961  00000+0 -79657-3 0  1986
2 62070  53.1586 309.5009 0000991  86.0164 243.4580 15.34403862    18
STARLINK-32553          
1 62071C 24217Q   26198.47618056 -.00037334  00000+0 -11034-2 0  1988
2 62071  53.1581 309.4974 0001101 112.7673 270.1424 15.34398300    14
STARLINK-32603          
1 62072C 24217R   26198.46159722 -.00061903  00000+0 -18287-2 0  1984
2 62072  53.1586 309.6984 0000873 103.7423 128.7607 15.34425589    12
STARLINK-32444          
1 62073C 24217S   26198.40048611 -.00010824  00000+0 -31958-3 0  1980
2 62073  53.1589 309.7061 0000941  99.2084 306.7005 15.34416525    11
STARLINK-32619          
1 62074C 24217T   26198.42270833 -.00025215  00000+0 -74458-3 0  1988
2 62074  53.1587 309.6069 0001013 100.0693  57.0393 15.34420688    16
STARLINK-32580          
1 62075C 24217U   26198.42965278 -.00033668  00000+0 -11344-2 0  1988
2 62075  53.1578 298.6638 0000920 100.9604 222.5240 15.30216927    18
STARLINK-32617          
1 62076C 24217V   26198.42618056 -.00051378  00000+0 -15179-2 0  1986
2 62076  53.1599 297.5986 0000874  82.7278  50.6305 15.34418763    16
STARLINK-11384 [DTC]    
1 62088C 24220A   26198.42756944  .00040732  00000+0  31658-3 0  1983
2 62088  43.0002 341.4316 0001610 258.4143  92.4166 15.70802074    15
STARLINK-11379 [DTC]    
1 62089C 24220B   26198.41506944  .00044562  00000+0  34638-3 0  1982
2 62089  43.0002 341.4320 0001721 256.7688  53.3513 15.70797912    15
STARLINK-11387 [DTC]    
1 62090C 24220C   26198.46576389  .00029388  00000+0  22832-3 0  1981
2 62090  43.0002 341.0528 0001637 263.8178   3.3650 15.70816465    14
STARLINK-11389 [DTC]    
1 62091C 24220D   26198.47965278  .00014081  00000+0  10938-3 0  1980
2 62091  43.0003 340.8948 0001626 265.1802 110.6998 15.70828661    14
STARLINK-11388 [DTC]    
1 62092C 24220E   26198.40395833  .00056060  00000+0  43562-3 0  1980
2 62092  43.0003 341.2748 0001643 259.0324  78.3512 15.70799701    12
STARLINK-11345 [DTC]    
1 62093C 24220F   26198.44284722  .00038848  00000+0  30182-3 0  1987
2 62093  43.0005 340.9666 0001715 258.3564 329.2657 15.70811891    11
STARLINK-11381 [DTC]    
1 62094C 24220G   26198.43659722  .00040655  00000+0  31586-3 0  1981
2 62094  43.0005 340.9293 0001653 263.4032 318.8922 15.70811030    10
STARLINK-11369 [DTC]    
1 62095C 24220H   26198.40534722  .00051754  00000+0  40221-3 0  1989
2 62095  43.0005 341.0428 0001618 263.7453 171.6869 15.70798612    19
